IXPE                    
1 49954U 21121A   24098.91667824  .00003617  00000+0  23650-3 0  9999
2 49954   0.2301 194.6613 0009636 315.0563 314.8815 14.97168430127346
